NORAD_CAT_ID,OBJECT_NAME,OBJECT_TYPE,EPOCH,MEAN_MOTION,ECCENTRICITY,INCLINATION,RA_OF_ASC_NODE,ARG_OF_PERICENTER,MEAN_ANOMALY,BSTAR,MEAN_MOTION_DOT,MEAN_MOTION_DDOT,TLE_LINE0,TLE_LINE1,TLE_LINE2,SEMIMAJOR_AXIS,PERIOD,APOGEE,PERIGEE,DECAYED
51809.0,STARLINK-3607,PAYLOAD,2023-10-28 14:16:16,15.08837331,0.0001867,53.2152,253.7162,83.7315,276.3889,0.00057525,8.878e-05,0.0,0 STARLINK-3607,1 51809U 22017AT  23301.59463576  .00008878  00000-0  57525-3 0  9997,2 51809  53.2152 253.7162 0001867  83.7315 276.3889 15.08837331 93765,6917.889,95.438,541.045,538.462,0.0
51809.0,STARLINK-3607,PAYLOAD,2023-10-28 20:37:49,15.08838851,0.0001672,53.2153,252.5243,90.1755,269.9429,0.00062106,9.61e-05,0.0,0 STARLINK-3607,1 51809U 22017AT  23301.85959597  .00009610  00000-0  62106-3 0  9995,2 51809  53.2153 252.5243 0001672  90.1755 269.9429 15.08838851 93808,6917.884,95.438,540.906,538.592,0.0
51809.0,STARLINK-3607,PAYLOAD,2023-10-29 04:34:44,15.08863939,0.0001606,53.2152,251.0375,93.8029,266.3147,0.0013028,0.0002052,0.0,0 STARLINK-3607,1 51809U 22017AT  23302.19079057  .00020520  00000-0  13028-2 0  9998,2 51809  53.2152 251.0375 0001606  93.8029 266.3147 15.08863939 93856,6917.807,95.436,540.783,538.561,0.0
51809.0,STARLINK-3607,PAYLOAD,2023-10-29 20:28:36,15.08844885,0.0001823,53.2153,248.0652,87.4458,272.6743,0.00044093,6.737e-05,0.0,0 STARLINK-3607,1 51809U 22017AT  23302.85319614  .00006737  00000-0  44093-3 0  9998,2 51809  53.2153 248.0652 0001823  87.4458 272.6743 15.08844885 93959,6917.865,95.437,540.992,538.469,0.0
51809.0,STARLINK-3607,PAYLOAD,2023-10-30 13:57:50,15.08843724,0.0001446,53.2173,244.7938,91.02,269.0958,0.00069642,0.00010814,0.0,0 STARLINK-3607,1 51809U 22017AT  23303.58183878  .00010814  00000-0  69642-3 0  9998,2 51809  53.2173 244.7938 0001446  91.0200 269.0958 15.08843724 94060,6917.869,95.437,540.734,538.734,0.0
51809.0,STARLINK-3607,PAYLOAD,2023-11-01 02:31:43,15.08855985,0.0001394,53.2181,237.956,91.2599,268.8553,0.00092004,0.00014391,0.0,0 STARLINK-3607,1 51809U 22017AT  23305.10536013  .00014391  00000-0  92004-3 0  9993,2 51809  53.2181 237.9560 0001394  91.2599 268.8553 15.08855985 94294,6917.832,95.437,540.661,538.732,0.0
51809.0,STARLINK-3607,PAYLOAD,2023-11-01 12:04:01,15.08852453,0.000133,53.2172,236.1681,83.7611,276.3533,0.00050058,7.69e-05,0.0,0 STARLINK-3607,1 51809U 22017AT  23305.50279785  .00007690  00000-0  50058-3 0  9994,2 51809  53.2172 236.1681 0001330  83.7611 276.3533 15.08852453 94356,6917.842,95.437,540.627,538.787,0.0
51809.0,STARLINK-3607,PAYLOAD,2023-11-02 02:22:30,15.08846497,0.0001686,53.218,233.4975,103.2427,256.8753,0.00036527,5.531e-05,0.0,0 STARLINK-3607,1 51809U 22017AT  23306.09895964  .00005531  00000-0  36527-3 0  9999,2 51809  53.2180 233.4975 0001686 103.2427 256.8753 15.08846497 94446,6917.861,95.437,540.892,538.559,0.0
51809.0,STARLINK-3607,PAYLOAD,2023-11-02 11:54:48,15.08846066,0.000167,53.2171,231.7136,103.1389,256.9789,0.0004195,6.396e-05,0.0,0 STARLINK-3607,1 51809U 22017AT  23306.49639955  .00006396  00000-0  41950-3 0  9995,2 51809  53.2171 231.7136 0001670 103.1389 256.9789 15.08846066 94504,6917.862,95.437,540.882,538.572,0.0
51809.0,STARLINK-3607,PAYLOAD,2023-11-02 19:51:44,15.08839196,0.0001779,53.2177,230.2261,101.0563,259.0629,-2.808e-05,-7.35e-06,0.0,0 STARLINK-3607,1 51809U 22017AT  23306.82760128 -.00000735  00000-0 -28080-4 0  9992,2 51809  53.2177 230.2261 0001779 101.0563 259.0629 15.08839196 94552,6917.883,95.438,540.979,538.517,0.0
51809.0,STARLINK-3607,PAYLOAD,2023-11-03 03:48:39,15.08850355,0.0001644,53.2177,228.7376,96.5178,263.6001,0.00012964,1.776e-05,0.0,0 STARLINK-3607,1 51809U 22017AT  23307.15879605  .00001776  00000-0  12964-3 0  9997,2 51809  53.2177 228.7376 0001644  96.5178 263.6001 15.08850355 94603,6917.849,95.437,540.851,538.576,0.0
51809.0,STARLINK-3607,PAYLOAD,2023-11-03 11:45:35,15.08843564,0.000157,53.2165,227.2484,82.9654,277.1516,9.6627e-05,1.25e-05,0.0,0 STARLINK-3607,1 51809U 22017AT  23307.48999754  .00001250  00000-0  96627-4 0  9997,2 51809  53.2165 227.2484 0001570  82.9654 277.1516 15.08843564 94650,6917.869,95.437,540.821,538.648,0.0
51809.0,STARLINK-3607,PAYLOAD,2023-11-04 11:36:23,15.08837855,0.0001464,53.2174,222.7923,93.9902,266.1257,1.2741e-05,-8.5e-07,0.0,0 STARLINK-3607,1 51809U 22017AT  23308.48360310 -.00000085  00000-0  12741-4 0  9999,2 51809  53.2174 222.7923 0001464  93.9902 266.1257 15.08837855 94801,6917.887,95.438,540.765,538.739,0.0
51809.0,STARLINK-3607,PAYLOAD,2023-11-04 22:44:05,15.08839172,0.0001417,53.2183,220.7098,97.2636,262.8517,0.00011024,1.467e-05,0.0,0 STARLINK-3607,1 51809U 22017AT  23308.94728514  .00001467  00000-0  11024-3 0  9990,2 51809  53.2183 220.7098 0001417  97.2636 262.8517 15.08839172 94874,6917.883,95.438,540.728,538.768,0.0
51809.0,STARLINK-3607,PAYLOAD,2023-11-05 01:54:50,15.08858713,0.0001426,53.2168,220.1122,88.7245,271.391,0.00026699,3.966e-05,0.0,0 STARLINK-3607,1 51809U 22017AT  23309.07975264  .00003966  00000-0  26699-3 0  9991,2 51809  53.2168 220.1122 0001426  88.7245 271.3910 15.08858713 94896,6917.823,95.436,540.675,538.702,0.0
51809.0,STARLINK-3607,PAYLOAD,2023-11-05 11:27:09,15.08853116,0.0001631,53.2167,218.3301,79.4539,280.6637,0.00017303,2.468e-05,0.0,0 STARLINK-3607,1 51809U 22017AT  23309.47719563  .00002468  00000-0  17303-3 0  9991,2 51809  53.2167 218.3301 0001631  79.4539 280.6637 15.08853116 94952,6917.84,95.437,540.834,538.577,0.0
51809.0,STARLINK-3607,PAYLOAD,2023-11-05 22:34:50,15.08865142,0.0001704,53.2167,216.2495,73.4987,286.6193,0.00044221,6.762e-05,0.0,0 STARLINK-3607,1 51809U 22017AT  23309.94086684  .00006762  00000-0  44221-3 0  9994,2 51809  53.2167 216.2495 0001704  73.4987 286.6193 15.08865142 95029,6917.804,95.436,540.847,538.49,0.0
51809.0,STARLINK-3607,PAYLOAD,2023-11-06 03:20:58,15.08899492,0.0001505,53.2167,215.3537,90.7502,269.3663,0.00078818,0.00012298,0.0,0 STARLINK-3607,1 51809U 22017AT  23310.13956400  .00012298  00000-0  78818-3 0  9999,2 51809  53.2167 215.3537 0001505  90.7502 269.3663 15.08899492 95058,6917.699,95.434,540.605,538.522,0.0
51809.0,STARLINK-3607,PAYLOAD,2023-11-06 11:17:55,15.08864951,0.0001739,53.2162,213.8681,96.5144,263.6046,0.00020971,3.053e-05,0.0,0 STARLINK-3607,1 51809U 22017AT  23310.47077636  .00003053  00000-0  20971-3 0  9997,2 51809  53.2162 213.8681 0001739  96.5144 263.6046 15.08864951 95101,6917.804,95.436,540.872,538.466,0.0
51809.0,STARLINK-3607,PAYLOAD,2023-11-06 22:25:39,15.08799413,0.0001445,53.216,211.7868,30.6228,329.4848,-0.00097249,-0.00015714,0.0,0 STARLINK-3607,1 51809U 22017AT  23310.93447953 -.00015714  00000-0 -97249-3 0  9992,2 51809  53.2160 211.7868 0001445  30.6228 329.4848 15.08799413 95177,6918.004,95.44,540.869,538.87,0.0
51809.0,STARLINK-3607,PAYLOAD,2023-11-07 00:01:02,15.08799813,0.000129,53.2166,211.4892,90.494,269.62,-0.00098587,-0.00015926,0.0,0 STARLINK-3607,1 51809U 22017AT  23311.00071948 -.00015926  00000-0 -98587-3 0  9999,2 51809  53.2166 211.4892 0001290  90.4940 269.6200 15.08799813 95182,6918.003,95.44,540.761,538.976,0.0
51809.0,STARLINK-3607,PAYLOAD,2023-11-08 03:02:35,15.08831748,0.0001402,53.2169,206.4327,107.8139,252.3006,6.912e-07,-2.77e-06,0.0,0 STARLINK-3607,1 51809U 22017AT  23312.12680492 -.00000277  00000-0  69120-6 0  9999,2 51809  53.2169 206.4327 0001402 107.8139 252.3006 15.08831748 95356,6917.906,95.438,540.741,538.801,0.0
51809.0,STARLINK-3607,PAYLOAD,2023-11-08 22:07:14,15.0884412,0.0001621,53.2165,202.8636,112.5433,247.5731,0.0007388,0.00011491,0.0,0 STARLINK-3607,1 51809U 22017AT  23312.92169008  .00011491  00000-0  73880-3 0  9996,2 51809  53.2165 202.8636 0001621 112.5433 247.5731 15.08844120 95470,6917.868,95.437,540.854,538.611,0.0
51809.0,STARLINK-3607,PAYLOAD,2023-11-08 23:42:37,15.08855121,0.0001321,53.2157,202.5683,89.6253,270.4891,0.00076257,0.00011874,0.0,0 STARLINK-3607,1 51809U 22017AT  23312.98793024  .00011874  00000-0  76257-3 0  9999,2 51809  53.2157 202.5683 0001321  89.6253 270.4891 15.08855121 95487,6917.834,95.437,540.613,538.785,0.0
51809.0,STARLINK-3607,PAYLOAD,2023-11-09 21:58:00,15.08849005,0.0001399,53.2168,198.4057,92.5579,267.5574,0.00016222,2.295e-05,0.0,0 STARLINK-3607,1 51809U 22017AT  23313.91528848  .00002295  00000-0  16222-3 0  9996,2 51809  53.2168 198.4057 0001399  92.5579 267.5574 15.08849005 95621,6917.853,95.437,540.686,538.75,0.0
51809.0,STARLINK-3607,PAYLOAD,2023-11-09 23:33:24,15.08848882,0.0001386,53.2162,198.1083,89.9929,270.1222,0.00020115,2.916e-05,0.0,0 STARLINK-3607,1 51809U 22017AT  23313.98152793  .00002916  00000-0  20115-3 0  9991,2 51809  53.2162 198.1083 0001386  89.9929 270.1222 15.08848882 95639,6917.853,95.437,540.677,538.759,0.0
51809.0,STARLINK-3607,PAYLOAD,2023-11-10 09:05:42,15.08839959,0.0001384,53.2158,196.3252,91.323,268.792,-2.2347e-05,-6.44e-06,0.0,0 STARLINK-3607,1 51809U 22017AT  23314.37896942 -.00000644  00000-0 -22347-4 0  9994,2 51809  53.2158 196.3252 0001384  91.3230 268.7920 15.08839959 95691,6917.881,95.438,540.703,538.788,0.0
51809.0,STARLINK-3607,PAYLOAD,2023-11-10 20:13:25,15.08839131,0.0001541,53.2154,194.2444,106.2661,253.8501,9.7726e-05,1.268e-05,0.0,0 STARLINK-3607,1 51809U 22017AT  23314.84265097  .00001268  00000-0  97726-4 0  9991,2 51809  53.2154 194.2444 0001541 106.2661 253.8501 15.08839131 95766,6917.883,95.438,540.814,538.682,0.0
51809.0,STARLINK-3607,PAYLOAD,2023-11-11 08:56:29,15.08845791,0.000146,53.2157,191.8652,91.5417,268.5743,1.0221e-05,-1.25e-06,0.0,0 STARLINK-3607,1 51809U 22017AT  23315.37256613 -.00000125  00000-0  10221-4 0  9991,2 51809  53.2157 191.8652 0001460  91.5417 268.5743 15.08845791 95847,6917.863,95.437,540.738,538.718,0.0
51809.0,STARLINK-3607,PAYLOAD,2023-11-11 20:04:12,15.08836992,0.000153,53.216,189.7841,88.1757,271.9411,2.5306e-05,1.15e-06,0.0,0 STARLINK-3607,1 51809U 22017AT  23315.83625368  .00000115  00000-0  25306-4 0  9997,2 51809  53.2160 189.7841 0001530  88.1757 271.9411 15.08836992 95915,6917.89,95.438,540.813,538.696,0.0
